[
  {
    "COMMENT": "GENERATED VIA SPACETRACK.ORG API",
    "ORIGINATOR": "18 SPCS",
    "NORAD_CAT_ID": "54754",
    "OBJECT_NAME": "SWOT",
    "OBJECT_TYPE": "PAYLOAD",
    "CLASSIFICATION_TYPE": "U",
    "INTLDES": "22173A",
    "EPOCH": "2023-06-19 12:54:24",
    "EPOCH_MICROSECONDS": "211008",
    "MEAN_MOTION": "14.09848658",
    "ECCENTRICITY": "0.0000731",
    "INCLINATION": "77.6099",
    "RA_OF_ASC_NODE": "72.1205",
    "ARG_OF_PERICENTER": "179.5649",
    "MEAN_ANOMALY": "180.5509",
    "EPHEMERIS_TYPE": "0",
    "ELEMENT_SET_NO": "999",
    "REV_AT_EPOCH": "2607",
    "BSTAR": "0.000086174",
    "MEAN_MOTION_DOT": "0.00000149",
    "MEAN_MOTION_DDOT": "0",
    "FILE": "3937338",
    "TLE_LINE0": "0 SWOT",
    "TLE_LINE1": "1 54754U 22173A   23170.53778022  .00000149  00000-0  86174-4 0  9991",
    "TLE_LINE2": "2 54754  77.6099  72.1205 0000731 179.5649 180.5509 14.09848658 26070",
    "OBJECT_ID": "2022-173A",
    "OBJECT_NUMBER": "54754",
    "SEMIMAJOR_AXIS": "7238.027",
    "PERIOD": "102.139",
    "APOGEE": "860.421",
    "PERIGEE": "859.363",
    "DECAYED": "0"
  },
  {
    "COMMENT": "GENERATED VIA SPACETRACK.ORG API",
    "ORIGINATOR": "18 SPCS",
    "NORAD_CAT_ID": "54754",
    "OBJECT_NAME": "SWOT",
    "OBJECT_TYPE": "PAYLOAD",
    "CLASSIFICATION_TYPE": "U",
    "INTLDES": "22173A",
    "EPOCH": "2023-06-19 19:43:09",
    "EPOCH_MICROSECONDS": "383232",
    "MEAN_MOTION": "14.09848755",
    "ECCENTRICITY": "0.0000724",
    "INCLINATION": "77.6099",
    "RA_OF_ASC_NODE": "71.7311",
    "ARG_OF_PERICENTER": "179.7574",
    "MEAN_ANOMALY": "180.3583",
    "EPHEMERIS_TYPE": "0",
    "ELEMENT_SET_NO": "999",
    "REV_AT_EPOCH": "2611",
    "BSTAR": "0.000085222",
    "MEAN_MOTION_DOT": "0.00000147",
    "MEAN_MOTION_DDOT": "0",
    "FILE": "3937509",
    "TLE_LINE0": "0 SWOT",
    "TLE_LINE1": "1 54754U 22173A   23170.82163638  .00000147  00000-0  85222-4 0  9995",
    "TLE_LINE2": "2 54754  77.6099  71.7311 0000724 179.7574 180.3583 14.09848755 26117",
    "OBJECT_ID": "2022-173A",
    "OBJECT_NUMBER": "54754",
    "SEMIMAJOR_AXIS": "7238.026",
    "PERIOD": "102.139",
    "APOGEE": "860.415",
    "PERIGEE": "859.367",
    "DECAYED": "0"
  },
  {
    "COMMENT": "GENERATED VIA SPACETRACK.ORG API",
    "ORIGINATOR": "18 SPCS",
    "NORAD_CAT_ID": "54754",
    "OBJECT_NAME": "SWOT",
    "OBJECT_TYPE": "PAYLOAD",
    "CLASSIFICATION_TYPE": "U",
    "INTLDES": "22173A",
    "EPOCH": "2023-06-20 04:14:05",
    "EPOCH_MICROSECONDS": "834688",
    "MEAN_MOTION": "14.09849227",
    "ECCENTRICITY": "0.0000726",
    "INCLINATION": "77.6099",
    "RA_OF_ASC_NODE": "71.2444",
    "ARG_OF_PERICENTER": "179.1308",
    "MEAN_ANOMALY": "180.985",
    "EPHEMERIS_TYPE": "0",
    "ELEMENT_SET_NO": "999",
    "REV_AT_EPOCH": "2616",
    "BSTAR": "0.00014709",
    "MEAN_MOTION_DOT": "0.00000256",
    "MEAN_MOTION_DDOT": "0",
    "FILE": "3937798",
    "TLE_LINE0": "0 SWOT",
    "TLE_LINE1": "1 54754U 22173A   23171.17645642  .00000256  00000-0  14709-3 0  9996",
    "TLE_LINE2": "2 54754  77.6099  71.2444 0000726 179.1308 180.9850 14.09849227 26163",
    "OBJECT_ID": "2022-173A",
    "OBJECT_NUMBER": "54754",
    "SEMIMAJOR_AXIS": "7238.025",
    "PERIOD": "102.139",
    "APOGEE": "860.415",
    "PERIGEE": "859.364",
    "DECAYED": "0"
  },
  {
    "COMMENT": "GENERATED VIA SPACETRACK.ORG API",
    "ORIGINATOR": "18 SPCS",
    "NORAD_CAT_ID": "54754",
    "OBJECT_NAME": "SWOT",
    "OBJECT_TYPE": "PAYLOAD",
    "CLASSIFICATION_TYPE": "U",
    "INTLDES": "22173A",
    "EPOCH": "2023-06-20 11:02:50",
    "EPOCH_MICROSECONDS": "999136",
    "MEAN_MOTION": "14.09849372",
    "ECCENTRICITY": "0.0000721",
    "INCLINATION": "77.6099",
    "RA_OF_ASC_NODE": "70.855",
    "ARG_OF_PERICENTER": "178.7544",
    "MEAN_ANOMALY": "181.3615",
    "EPHEMERIS_TYPE": "0",
    "ELEMENT_SET_NO": "999",
    "REV_AT_EPOCH": "2620",
    "BSTAR": "0.00014742",
    "MEAN_MOTION_DOT": "0.00000257",
    "MEAN_MOTION_DDOT": "0",
    "FILE": "3938135",
    "TLE_LINE0": "0 SWOT",
    "TLE_LINE1": "1 54754U 22173A   23171.46031249  .00000257  00000-0  14742-3 0  9998",
    "TLE_LINE2": "2 54754  77.6099  70.8550 0000721 178.7544 181.3615 14.09849372 26208",
    "OBJECT_ID": "2022-173A",
    "OBJECT_NUMBER": "54754",
    "SEMIMAJOR_AXIS": "7238.024",
    "PERIOD": "102.139",
    "APOGEE": "860.411",
    "PERIGEE": "859.367",
    "DECAYED": "0"
  },
  {
    "COMMENT": "GENERATED VIA SPACETRACK.ORG API",
    "ORIGINATOR": "18 SPCS",
    "NORAD_CAT_ID": "54754",
    "OBJECT_NAME": "SWOT",
    "OBJECT_TYPE": "PAYLOAD",
    "CLASSIFICATION_TYPE": "U",
    "INTLDES": "22173A",
    "EPOCH": "2023-06-20 21:15:58",
    "EPOCH_MICROSECONDS": "735872",
    "MEAN_MOTION": "14.09849621",
    "ECCENTRICITY": "0.0000713",
    "INCLINATION": "77.6099",
    "RA_OF_ASC_NODE": "70.271",
    "ARG_OF_PERICENTER": "179.0491",
    "MEAN_ANOMALY": "181.0668",
    "EPHEMERIS_TYPE": "0",
    "ELEMENT_SET_NO": "999",
    "REV_AT_EPOCH": "2626",
    "BSTAR": "0.00014886",
    "MEAN_MOTION_DOT": "0.00000259",
    "MEAN_MOTION_DDOT": "0",
    "FILE": "3938544",
    "TLE_LINE0": "0 SWOT",
    "TLE_LINE1": "1 54754U 22173A   23171.88609648  .00000259  00000-0  14886-3 0  9999",
    "TLE_LINE2": "2 54754  77.6099  70.2710 0000713 179.0491 181.0668 14.09849621 26264",
    "OBJECT_ID": "2022-173A",
    "OBJECT_NUMBER": "54754",
    "SEMIMAJOR_AXIS": "7238.023",
    "PERIOD": "102.139",
    "APOGEE": "860.404",
    "PERIGEE": "859.372",
    "DECAYED": "0"
  },
  {
    "COMMENT": "GENERATED VIA SPACETRACK.ORG API",
    "ORIGINATOR": "18 SPCS",
    "NORAD_CAT_ID": "54754",
    "OBJECT_NAME": "SWOT",
    "OBJECT_TYPE": "PAYLOAD",
    "CLASSIFICATION_TYPE": "U",
    "INTLDES": "22173A",
    "EPOCH": "2023-06-21 10:53:29",
    "EPOCH_MICROSECONDS": "48352",
    "MEAN_MOTION": "14.09849925",
    "ECCENTRICITY": "0.0000705",
    "INCLINATION": "77.6099",
    "RA_OF_ASC_NODE": "69.4922",
    "ARG_OF_PERICENTER": "178.7875",
    "MEAN_ANOMALY": "181.3284",
    "EPHEMERIS_TYPE": "0",
    "ELEMENT_SET_NO": "999",
    "REV_AT_EPOCH": "2634",
    "BSTAR": "0.00014882",
    "MEAN_MOTION_DOT": "0.00000259",
    "MEAN_MOTION_DDOT": "0",
    "FILE": "3939079",
    "TLE_LINE0": "0 SWOT",
    "TLE_LINE1": "1 54754U 22173A   23172.45380843  .00000259  00000-0  14882-3 0  9992",
    "TLE_LINE2": "2 54754  77.6099  69.4922 0000705 178.7875 181.3284 14.09849925 26345",
    "OBJECT_ID": "2022-173A",
    "OBJECT_NUMBER": "54754",
    "SEMIMAJOR_AXIS": "7238.022",
    "PERIOD": "102.139",
    "APOGEE": "860.398",
    "PERIGEE": "859.377",
    "DECAYED": "0"
  },
  {
    "COMMENT": "GENERATED VIA SPACETRACK.ORG API",
    "ORIGINATOR": "18 SPCS",
    "NORAD_CAT_ID": "54754",
    "OBJECT_NAME": "SWOT",
    "OBJECT_TYPE": "PAYLOAD",
    "CLASSIFICATION_TYPE": "U",
    "INTLDES": "22173A",
    "EPOCH": "2023-06-21 12:35:40",
    "EPOCH_MICROSECONDS": "337088",
    "MEAN_MOTION": "14.0984997",
    "ECCENTRICITY": "0.0000705",
    "INCLINATION": "77.6099",
    "RA_OF_ASC_NODE": "69.3948",
    "ARG_OF_PERICENTER": "178.7106",
    "MEAN_ANOMALY": "181.4053",
    "EPHEMERIS_TYPE": "0",
    "ELEMENT_SET_NO": "999",
    "REV_AT_EPOCH": "2635",
    "BSTAR": "0.00014996",
    "MEAN_MOTION_DOT": "0.00000261",
    "MEAN_MOTION_DDOT": "0",
    "FILE": "3939133",
    "TLE_LINE0": "0 SWOT",
    "TLE_LINE1": "1 54754U 22173A   23172.52477242  .00000261  00000-0  14996-3 0  9999",
    "TLE_LINE2": "2 54754  77.6099  69.3948 0000705 178.7106 181.4053 14.09849970 26355",
    "OBJECT_ID": "2022-173A",
    "OBJECT_NUMBER": "54754",
    "SEMIMAJOR_AXIS": "7238.022",
    "PERIOD": "102.139",
    "APOGEE": "860.397",
    "PERIGEE": "859.377",
    "DECAYED": "0"
  },
  {
    "COMMENT": "GENERATED VIA SPACETRACK.ORG API",
    "ORIGINATOR": "18 SPCS",
    "NORAD_CAT_ID": "54754",
    "OBJECT_NAME": "SWOT",
    "OBJECT_TYPE": "PAYLOAD",
    "CLASSIFICATION_TYPE": "U",
    "INTLDES": "22173A",
    "EPOCH": "2023-06-21 19:24:25",
    "EPOCH_MICROSECONDS": "489440",
    "MEAN_MOTION": "14.09850086",
    "ECCENTRICITY": "0.0000702",
    "INCLINATION": "77.6099",
    "RA_OF_ASC_NODE": "69.0055",
    "ARG_OF_PERICENTER": "178.3766",
    "MEAN_ANOMALY": "181.7393",
    "EPHEMERIS_TYPE": "0",
    "ELEMENT_SET_NO": "999",
    "REV_AT_EPOCH": "2639",
    "BSTAR": "0.00014484",
    "MEAN_MOTION_DOT": "0.00000252",
    "MEAN_MOTION_DDOT": "0",
    "FILE": "3940263",
    "TLE_LINE0": "0 SWOT",
    "TLE_LINE1": "1 54754U 22173A   23172.80862835  .00000252  00000-0  14484-3 0  9998",
    "TLE_LINE2": "2 54754  77.6099  69.0055 0000702 178.3766 181.7393 14.09850086 26390",
    "OBJECT_ID": "2022-173A",
    "OBJECT_NUMBER": "54754",
    "SEMIMAJOR_AXIS": "7238.022",
    "PERIOD": "102.139",
    "APOGEE": "860.395",
    "PERIGEE": "859.379",
    "DECAYED": "0"
  },
  {
    "COMMENT": "GENERATED VIA SPACETRACK.ORG API",
    "ORIGINATOR": "18 SPCS",
    "NORAD_CAT_ID": "54754",
    "OBJECT_NAME": "SWOT",
    "OBJECT_TYPE": "PAYLOAD",
    "CLASSIFICATION_TYPE": "U",
    "INTLDES": "22173A",
    "EPOCH": "2023-06-22 19:15:03",
    "EPOCH_MICROSECONDS": "487680",
    "MEAN_MOTION": "14.09850751",
    "ECCENTRICITY": "0.0000694",
    "INCLINATION": "77.6099",
    "RA_OF_ASC_NODE": "67.6426",
    "ARG_OF_PERICENTER": "178.3294",
    "MEAN_ANOMALY": "181.7865",
    "EPHEMERIS_TYPE": "0",
    "ELEMENT_SET_NO": "999",
    "REV_AT_EPOCH": "2653",
    "BSTAR": "0.00015814",
    "MEAN_MOTION_DOT": "0.00000275",
    "MEAN_MOTION_DDOT": "0",
    "FILE": "3940244",
    "TLE_LINE0": "0 SWOT",
    "TLE_LINE1": "1 54754U 22173A   23173.80212370  .00000275  00000-0  15814-3 0  9995",
    "TLE_LINE2": "2 54754  77.6099  67.6426 0000694 178.3294 181.7865 14.09850751 26531",
    "OBJECT_ID": "2022-173A",
    "OBJECT_NUMBER": "54754",
    "SEMIMAJOR_AXIS": "7238.019",
    "PERIOD": "102.138",
    "APOGEE": "860.387",
    "PERIGEE": "859.382",
    "DECAYED": "0"
  }
]